Timestamp,WeatherInfo
2023-12-27 18:55:00,EHAM 271855Z 19017KT 9999 -RA FEW031 SCT035 09/06 Q1004 TEMPO 7000
2023-12-27 18:25:00,EHAM 271825Z 18016KT 9999 FEW024 BKN038 09/06 Q1004 TEMPO 7000 -RADZ
2023-12-27 17:55:00,EHAM 271755Z 18015KT 140V200 9999 FEW049 09/07 Q1005 NOSIG
2023-12-27 17:25:00,EHAM 271725Z 17017KT 140V200 CAVOK 09/07 Q1005 NOSIG
2023-12-27 16:55:00,EHAM 271655Z 17014KT 9999 FEW047 08/07 Q1006 NOSIG
2023-12-27 16:25:00,EHAM 271625Z 17016KT CAVOK 09/07 Q1006 NOSIG
2023-12-27 15:55:00,EHAM 271555Z 16016KT 9999 FEW017 09/07 Q1007 NOSIG
2023-12-27 15:25:00,EHAM 271525Z 17016KT 9999 FEW015 BKN048 09/08 Q1007 NOSIG
2023-12-27 14:55:00,EHAM 271455Z 17016KT 9999 FEW010 09/08 Q1008 NOSIG
2023-12-27 14:25:00,EHAM 271425Z 17015KT 140V200 9999 FEW011 09/08 Q1009 TEMPO BKN015
2023-12-27 13:55:00,EHAM 271355Z 17014KT 140V210 9999 FEW010 SCT016 09/08 Q1009 TEMPO BKN015
2023-12-27 13:25:00,EHAM 271325Z 17013KT 140V200 9999 FEW008 SCT012 BKN017 09/09 Q1010 NOSIG
2023-12-27 12:55:00,EHAM 271255Z 17011KT 9999 FEW007 SCT010 BKN013 09/09 Q1010 BECMG BKN015
2023-12-27 12:25:00,EHAM 271225Z 18010KT 150V210 9999 FEW006 SCT008 BKN011 09/09 Q1011 NOSIG
2023-12-27 11:55:00,EHAM 271155Z 17011KT 9999 FEW004 SCT006 BKN008 09/08 Q1012 BECMG BKN012
2023-12-27 11:25:00,EHAM 271125Z 16012KT 9999 -DZ SCT004 BKN005 08/08 Q1012 NOSIG
2023-12-27 10:55:00,EHAM 271055Z 16012KT 4500 -DZ SCT004 BKN005 08/08 Q1013 BECMG 9999 NSW
2023-12-27 10:25:00,EHAM 271025Z 15011KT 120V180 5000 -DZ BKN004 OVC006 08/07 Q1013 BECMG 9999 NSW BKN007
2023-12-27 09:55:00,EHAM 270955Z 15011KT 9999 BKN004 07/07 Q1014 BECMG BKN007
2023-12-27 09:25:00,EHAM 270925Z 14011KT 9999 -DZRA BKN004 BKN006 07/06 Q1014 BECMG BKN007
2023-12-27 08:55:00,EHAM 270855Z 14010KT 090V210 6000 -DZRA FEW003 BKN004 06/06 Q1014 BECMG 8000 BKN005
2023-12-27 08:25:00,EHAM 270825Z 13012KT 4000 DZRA SCT004 BKN005 06/06 Q1015 TEMPO BKN004 BECMG 6000
2023-12-27 07:55:00,EHAM 270755Z 12012KT 4000 DZRA SCT006 BKN008 06/05 Q1015 TEMPO 6000
2023-12-27 07:25:00,EHAM 270725Z 12011KT 9000 -RADZ FEW016 BKN035 06/05 Q1016 BECMG 6000 BKN008
2023-12-27 06:55:00,EHAM 270655Z 12011KT 9999 -RADZ SCT020 BKN042 06/05 Q1016 BECMG BKN018
2023-12-27 05:55:00,EHAM 270555Z 12011KT 9999 SCT026 06/05 Q1017 NOSIG
2023-12-27 05:25:00,EHAM 270525Z 11009KT CAVOK 05/05 Q1017 NOSIG
2023-12-27 04:55:00,EHAM 270455Z 11008KT 080V140 9999 FEW038 05/05 Q1018 NOSIG
2023-12-27 04:25:00,EHAM 270425Z 11008KT CAVOK 05/04 Q1018 NOSIG
2023-12-27 03:55:00,EHAM 270355Z 11007KT 9999 FEW027 05/04 Q1019 NOSIG
2023-12-27 03:25:00,EHAM 270325Z 12007KT 9999 FEW027 04/04 Q1019 NOSIG
2023-12-27 02:55:00,EHAM 270255Z 11006KT 9999 FEW027 03/03 Q1019 NOSIG
2023-12-27 02:25:00,EHAM 270225Z 11005KT 9000 NSC 02/02 Q1020 NOSIG
2023-12-27 01:55:00,EHAM 270155Z 11003KT CAVOK 02/02 Q1020 NOSIG
2023-12-27 01:25:00,EHAM 270125Z 11004KT CAVOK 02/01 Q1020 NOSIG
2023-12-27 00:55:00,EHAM 270055Z 10003KT CAVOK 02/02 Q1020 NOSIG
2023-12-27 00:25:00,EHAM 270025Z 09003KT CAVOK 02/02 Q1020 NOSIG
2023-12-26 23:55:00,EHAM 262355Z 13002KT CAVOK 03/03 Q1020 NOSIG
2023-12-26 23:25:00,EHAM 262325Z 14003KT 9999 FEW026 03/02 Q1021 NOSIG
2023-12-26 22:55:00,EHAM 262255Z 15003KT 9999 FEW030 03/03 Q1021 NOSIG
2023-12-26 22:25:00,EHAM 262225Z 16003KT 9999 FEW026 03/03 Q1020 NOSIG
2023-12-26 21:55:00,EHAM 262155Z 12002KT 9999 FEW026 03/03 Q1020 NOSIG
2023-12-26 21:25:00,EHAM 262125Z 15003KT 9999 FEW024 03/02 Q1020 NOSIG
2023-12-26 20:55:00,EHAM 262055Z VRB01KT CAVOK 04/02 Q1020 NOSIG
2023-12-26 20:25:00,EHAM 262025Z 28002KT 9999 FEW025 04/02 Q1020 NOSIG
2023-12-26 19:55:00,EHAM 261955Z 28003KT 9999 FEW025 04/03 Q1020 NOSIG
2023-12-26 19:25:00,EHAM 261925Z 28005KT 9999 FEW025 05/02 Q1019 NOSIG
2023-12-26 18:55:00,EHAM 261855Z 27006KT 260V320 9999 FEW032 05/03 Q1019 NOSIG
2023-12-26 18:25:00,EHAM 261825Z 29003KT 240V340 9999 FEW021 05/04 Q1019 NOSIG
2023-12-26 17:55:00,EHAM 261755Z 28005KT 9999 FEW019 06/03 Q1018 NOSIG
2023-12-26 17:25:00,EHAM 261725Z 27007KT 9999 FEW019 06/04 Q1018 NOSIG
2023-12-26 16:55:00,EHAM 261655Z 27007KT 9999 FEW020 SCT035 06/04 Q1018 NOSIG
2023-12-26 16:25:00,EHAM 261625Z 28007KT 250V310 9999 FEW020 06/04 Q1017 NOSIG
2023-12-26 15:55:00,EHAM 261555Z 29009KT 9999 FEW021 08/04 Q1017 NOSIG
2023-12-26 15:25:00,EHAM 261525Z 29010KT 260V320 9999 FEW015 SCT032 08/05 Q1016 NOSIG
2023-12-26 14:55:00,EHAM 261455Z 30012KT 9999 FEW015 SCT035 08/05 Q1016 NOSIG
2023-12-26 14:25:00,EHAM 261425Z 30012KT 9999 FEW015 SCT036 08/06 Q1015 NOSIG
2023-12-26 13:55:00,EHAM 261355Z 27015KT 9999 -RA FEW014 SCT017 BKN032 09/06 Q1015 BECMG 30012KT
2023-12-26 13:25:00,EHAM 261325Z 27017KT 9999 FEW018 BKN037 09/06 Q1015 BECMG 30012KT TEMPO -SHRA
2023-12-26 12:55:00,EHAM 261255Z 27016KT 9999 FEW024 BKN037 09/05 Q1014 NOSIG
2023-12-26 12:25:00,EHAM 261225Z 27017KT 9999 FEW027 BKN040 09/05 Q1014 NOSIG
2023-12-26 11:55:00,EHAM 261155Z 27019KT 240V300 9999 FEW025 BKN038 09/05 Q1013 NOSIG
2023-12-26 11:25:00,EHAM 261125Z 27020KT 9999 FEW026 BKN038 10/05 Q1013 NOSIG
2023-12-26 10:55:00,EHAM 261055Z 27020KT 9999 FEW029 BKN039 09/05 Q1012 NOSIG
2023-12-26 10:25:00,EHAM 261025Z 26021G31KT 230V290 9999 FEW029 BKN038 10/05 Q1012 NOSIG
2023-12-26 09:55:00,EHAM 260955Z 26019KT 230V290 9999 FEW028 SCT038 09/05 Q1012 NOSIG
2023-12-26 09:25:00,EHAM 260925Z 26019KT 9999 FEW028 09/05 Q1011 NOSIG
2023-12-26 08:55:00,EHAM 260855Z 25018KT 9999 FEW025 09/05 Q1010 NOSIG
2023-12-26 08:25:00,EHAM 260825Z 25017KT 9999 FEW025 09/05 Q1010 NOSIG
2023-12-26 07:55:00,EHAM 260755Z 26016KT 9999 FEW010 09/05 Q1009 NOSIG
2023-12-26 07:25:00,EHAM 260725Z 25016KT CAVOK 09/05 Q1009 NOSIG
2023-12-26 06:55:00,EHAM 260655Z 25017KT 9999 FEW027 09/05 Q1008 NOSIG
2023-12-26 06:25:00,EHAM 260625Z 26018KT 9999 FEW027 09/05 Q1008 NOSIG
2023-12-26 05:55:00,EHAM 260555Z 26016KT 9999 FEW027 SCT032 09/05 Q1008 NOSIG
2023-12-26 05:25:00,EHAM 260525Z 26018KT 9999 FEW030 09/05 Q1007 NOSIG
2023-12-26 04:55:00,EHAM 260455Z 26018KT 9999 FEW025 09/06 Q1007 NOSIG
2023-12-26 04:25:00,EHAM 260425Z 27018KT 230V290 9999 FEW023 09/07 Q1006 NOSIG
2023-12-26 03:55:00,EHAM 260355Z 26014KT 230V290 9999 -RA FEW016 SCT030 10/08 Q1006 NOSIG
2023-12-26 03:25:00,EHAM 260325Z 28020KT 9999 FEW015 SCT027 10/07 Q1005 NOSIG
2023-12-26 02:55:00,EHAM 260255Z 26018KT 9999 FEW015 SCT023 11/09 Q1005 NOSIG
2023-12-26 02:25:00,EHAM 260225Z 26017G27KT 9999 FEW013 11/09 Q1004 NOSIG
2023-12-26 01:55:00,EHAM 260155Z 25020KT 9999 FEW009 SCT016 11/10 Q1004 NOSIG
2023-12-26 01:25:00,EHAM 260125Z 25023G33KT 9999 FEW008 SCT010 BKN018 11/10 Q1004 NOSIG
2023-12-26 00:55:00,EHAM 260055Z 25022G32KT 9000 -RADZ FEW008 SCT010 BKN021 11/10 Q1003 NOSIG
2023-12-26 00:25:00,EHAM 260025Z 24021G31KT 8000 -RADZ FEW008 SCT010 BKN021 11/10 Q1003 NOSIG
2023-12-25 23:55:00,EHAM 252355Z 24024G35KT 9000 -RADZ FEW006 BKN008 BKN011 11/10 Q1003 TEMPO 6000
2023-12-25 23:25:00,EHAM 252325Z 24024G34KT 210V280 9000 -RADZ FEW006 BKN007 BKN011 11/10 Q1003 RERADZ TEMPO 6000
2023-12-25 22:55:00,EHAM 252255Z 25024G34KT 210V280 8000 RADZ FEW005 BKN008 BKN012 11/11 Q1003 TEMPO 6000
2023-12-25 22:25:00,EHAM 252225Z 26017KT 6000 RADZ FEW005 BKN007 BKN013 11/11 Q1003 NOSIG
2023-12-25 21:55:00,EHAM 252155Z 24022G35KT 210V280 6000 RADZ FEW004 BKN007 BKN012 11/11 Q1003 REDZRA TEMPO 4500
2023-12-25 21:25:00,EHAM 252125Z 22007KT 210V270 3500 DZRA SCT003 BKN006 BKN012 10/10 Q1003 TEMPO 6000
2023-12-25 20:55:00,EHAM 252055Z 24009KT 4500 DZRA FEW004 BKN007 BKN017 10/09 Q1004 TEMPO 6000
2023-12-25 20:25:00,EHAM 252025Z 24012KT 3500 DZRA FEW005 SCT007 BKN018 10/09 Q1004 TEMPO 6000 BKN007
2023-12-25 19:55:00,EHAM 251955Z 24015KT 8000 -RADZ FEW006 BKN025 10/10 Q1004 TEMPO 6000
2023-12-25 19:25:00,EHAM 251925Z 24014KT 210V280 9999 -RA FEW006 SCT030 BKN043 10/09 Q1005 TEMPO 7000
2023-12-25 18:55:00,EHAM 251855Z 24018KT 9999 -RA FEW006 SCT039 11/09 Q1005 TEMPO 7000
2023-12-25 18:25:00,EHAM 251825Z 25016KT 9999 -RA FEW006 11/10 Q1005 NOSIG
2023-12-25 17:55:00,EHAM 251755Z 24016KT 9999 -RA FEW008 11/10 Q1005 NOSIG
2023-12-25 17:25:00,EHAM 251725Z 24017KT 210V270 9999 -RA FEW007 12/10 Q1005 NOSIG
2023-12-25 16:55:00,EHAM 251655Z 24018KT 9999 -RA FEW008 12/10 Q1005 NOSIG
2023-12-25 16:25:00,EHAM 251625Z 24016KT 200V280 9999 -RA FEW008 BKN037 12/10 Q1006 NOSIG
2023-12-25 15:55:00,EHAM 251555Z 24017KT 9999 FEW008 SCT012 BKN038 12/10 Q1006 NOSIG
2023-12-25 15:25:00,EHAM 251525Z 24016KT 9999 FEW008 BKN041 12/10 Q1006 NOSIG
2023-12-25 14:55:00,EHAM 251455Z 24013KT 220V280 9999 FEW008 BKN040 12/10 Q1006 NOSIG
2023-12-25 14:25:00,EHAM 251425Z 25016KT 220V280 9999 FEW015 SCT048 12/09 Q1006 NOSIG
2023-12-25 13:55:00,EHAM 251355Z 25014KT 9999 FEW016 12/09 Q1006 NOSIG
2023-12-25 13:25:00,EHAM 251325Z 25016KT 9999 FEW016 12/09 Q1006 NOSIG
2023-12-25 12:55:00,EHAM 251255Z 26016KT 9999 FEW014 12/09 Q1006 NOSIG
2023-12-25 12:25:00,EHAM 251225Z 25015KT 220V280 9999 FEW014 SCT038 12/09 Q1006 NOSIG
2023-12-25 11:55:00,EHAM 251155Z 25014KT 9999 FEW014 SCT038 12/09 Q1006 NOSIG
2023-12-25 11:25:00,EHAM 251125Z 25013KT 230V290 9999 FEW025 12/09 Q1006 NOSIG
2023-12-25 10:55:00,EHAM 251055Z 25014KT 9999 FEW030 12/09 Q1006 NOSIG
2023-12-25 10:25:00,EHAM 251025Z 24013KT 210V270 9999 FEW025 11/09 Q1006 NOSIG
2023-12-25 09:55:00,EHAM 250955Z 25012KT 200V270 9999 FEW008 12/10 Q1006 NOSIG
2023-12-25 09:25:00,EHAM 250925Z 25012KT 9999 FEW008 11/10 Q1006 NOSIG
2023-12-25 08:55:00,EHAM 250855Z 25011KT 9999 FEW008 11/10 Q1005 NOSIG
2023-12-25 08:25:00,EHAM 250825Z 25011KT 9999 FEW008 11/10 Q1005 NOSIG
2023-12-25 07:55:00,EHAM 250755Z 25009KT 9999 FEW008 11/10 Q1005 NOSIG
2023-12-25 07:25:00,EHAM 250725Z 26010KT 9999 -RA FEW035 11/09 Q1005 NOSIG
2023-12-25 06:55:00,EHAM 250655Z 26014KT CAVOK 11/09 Q1005 NOSIG
2023-12-25 06:25:00,EHAM 250625Z 26015KT 9999 FEW010 11/10 Q1004 NOSIG
2023-12-25 05:55:00,EHAM 250555Z 26016KT 220V280 9999 FEW009 12/10 Q1004 NOSIG
2023-12-25 05:25:00,EHAM 250525Z 25016KT 220V280 9999 FEW009 SCT026 12/10 Q1004 NOSIG
2023-12-25 04:55:00,EHAM 250455Z 25016G26KT 210V280 9999 FEW009 12/10 Q1004 NOSIG
2023-12-25 04:25:00,EHAM 250425Z 25020G30KT 220V280 9999 FEW010 SCT031 12/10 Q1004 NOSIG
2023-12-25 03:55:00,EHAM 250355Z 25021G32KT 9999 FEW010 SCT031 12/10 Q1004 NOSIG
2023-12-25 03:25:00,EHAM 250325Z 25023G33KT 220V280 9999 FEW010 SCT030 12/10 Q1004 NOSIG
2023-12-25 02:55:00,EHAM 250255Z 25020G30KT 220V280 9999 FEW007 SCT009 BKN025 11/10 Q1004 NOSIG
2023-12-25 02:25:00,EHAM 250225Z 25020G30KT 220V280 9999 FEW009 SCT022 BKN038 12/10 Q1004 NOSIG
2023-12-25 01:55:00,EHAM 250155Z 25021G31KT 9999 -RA FEW009 SCT022 BKN045 12/10 Q1003 NOSIG
2023-12-25 01:25:00,EHAM 250125Z 25020G30KT 9999 FEW010 BKN045 12/10 Q1003 NOSIG
2023-12-25 00:55:00,EHAM 250055Z 25022G34KT 220V280 9999 FEW009 12/10 Q1003 NOSIG
2023-12-25 00:25:00,EHAM 250025Z 25023G33KT 220V280 9999 FEW008 SCT010 12/10 Q1003 NOSIG
2023-12-24 23:55:00,EHAM 242355Z 24024G35KT 210V280 9999 FEW007 BKN009 12/11 Q1003 BECMG SCT035
2023-12-24 23:25:00,EHAM 242325Z 24023G33KT 210V280 9999 FEW007 SCT009 12/11 Q1003 NOSIG
2023-12-24 22:55:00,EHAM 242255Z 24025KT 9999 -RA FEW007 SCT010 12/11 Q1003 NOSIG
2023-12-24 22:25:00,EHAM 242225Z 24024G37KT 210V270 9999 SCT010 12/11 Q1003 NOSIG
2023-12-24 21:55:00,EHAM 242155Z 24026G36KT 200V270 9999 FEW009 12/11 Q1002 NOSIG
2023-12-24 21:25:00,EHAM 242125Z 24023KT 210V270 9999 FEW009 12/11 Q1002 NOSIG
2023-12-24 20:55:00,EHAM 242055Z 24024KT 9999 FEW009 SCT011 12/11 Q1002 NOSIG
2023-12-24 20:25:00,EHAM 242025Z 24024G35KT 210V270 9999 FEW009 SCT011 12/10 Q1002 NOSIG
2023-12-24 19:55:00,EHAM 241955Z 24024G35KT 9999 FEW009 SCT011 12/11 Q1002 NOSIG
2023-12-24 19:25:00,EHAM 241925Z 24024KT 210V270 9999 FEW009 BKN011 12/11 Q1002 BECMG SCT013
